# From MPEC 2022-S20
C/1995 O1 (Hale-Bopp),e,89.2941,282.7198,130.4118,176.9645,0.0004187,0.99496841,0.0000,03/29.6331/1997,2000,g -2.0,4.0
# From NK 1615
P/1996 R2 (Lagerkvist),e,2.6009,40.0089,333.3903,3.774616,0.1343986,0.31456331,177.5584,09/26.0/2022,2000,g 11.5,4.0
# From MPC 75703
P/1998 VS24 (LINEAR),e,5.0266,159.0398,244.6207,4.525532,0.1023763,0.24311061,175.0687,09/26.0/2022,2000,g 13.0,2.0
# From NK 731
P/1999 RO28 (LONEOS),e,7.5658,137.8737,231.2943,3.426514,0.1553908,0.67252073,184.4602,09/26.0/2022,2000,g 20.0,2.0
# From MPC 75704
P/1999 XN120 (Catalina),e,5.0298,285.2963,161.6927,4.178999,0.1153707,0.21038552,223.3683,09/26.0/2022,2000,g 13.5,2.0
# From NK 744
P/2000 R2 (LINEAR),e,11.6868,160.2856,176.5867,3.467623,0.1526357,0.53144522,182.5763,09/26.0/2022,2000,g 18.0,4.0
# From MPC 43019
P/2001 H5 (NEAT),e,8.3671,328.6845,224.7446,6.096039,0.0654836,0.59820244,166.2529,09/26.0/2022,2000,g 12.0,4.0
# From MPC 75704
P/2001 Q6 (NEAT),e,56.9115,22.1847,42.9373,7.958323,0.0439007,0.82333313,337.1539,09/26.0/2022,2000,g 13.5,4.0
# From MPC 47727
P/2002 EJ57 (LINEAR),e,4.9775,330.3094,167.2918,6.463780,0.0599755,0.59236873,93.6601,09/26.0/2022,2000,g 12.5,4.0
# From MPC109588
P/2002 T6 (NEAT-LINEAR),e,10.8513,206.0733,219.5625,7.726865,0.0458880,0.56238828,329.5774,09/26.0/2022,2000,g 10.5,4.0
# From MPC 75007
C/2002 VQ94 (LINEAR),e,70.6881,35.1375,99.9905,184.2929,0.0003940,0.96305714,2.3965,09/26.0/2022,2000,g  9.5,2.0
# From MPC 50354
P/2003 F2 (NEAT),e,11.6108,358.9955,192.2602,6.502060,0.0594467,0.54141860,62.3473,09/26.0/2022,2000,g 16.5,2.0
# From MPC 50139
P/2003 QX29 (NEAT),e,11.3931,264.5173,37.6556,8.016404,0.0434245,0.47258885,314.6009,09/26.0/2022,2000,g  8.5,4.0
# From MPC105235
P/2003 T12 (SOHO),e,11.0225,174.5862,219.7482,2.585482,0.2370783,0.77012461,206.6749,09/26.0/2022,2000,g 17.0,4.0
# From MPC 82312
P/2004 A1 (LONEOS),e,10.5517,124.8582,21.1060,7.970590,0.0437994,0.31003504,291.0154,09/26.0/2022,2000,g  6.5,4.0
# From MPC 54558
P/2004 DO29 (Spacewatch-LINEAR),e,14.5313,147.3762,40.5173,7.295044,0.0500221,0.44125033,329.1461,09/26.0/2022,2000,g 13.5,2.0
# From MPC 54823
P/2004 FY140 (LINEAR),e,2.1348,326.7795,242.1248,4.906736,0.0906807,0.16785623,238.2975,09/26.0/2022,2000,g 12.5,2.0
# From MPC 53304
P/2004 R3 (LINEAR-NEAT),e,12.7817,305.3252,37.6967,4.764939,0.0947585,0.25578900,35.0947,09/26.0/2022,2000,g 14.5,4.0
# From MPC 55521
P/2004 V3 (Siding Spring),e,50.4438,356.1298,322.4803,7.130488,0.0517637,0.44595825,338.1031,09/26.0/2022,2000,g 11.5,4.0
# From MPC 75705
P/2004 V5 (LINEAR-Hill),e,19.3425,47.7841,87.5728,7.989118,0.0436471,0.44465886,282.1644,09/26.0/2022,2000,g  8.0,4.0
# From MPC 54164
P/2005 E1 (Tubbiolo),e,4.2632,335.5752,193.8960,7.049755,0.0526554,0.37553975,340.6539,09/26.0/2022,2000,g 10.0,4.0
# From MPC 79019
P/2005 J1 (McNaught),e,31.7401,268.8277,338.9326,3.571816,0.1460059,0.56904360,211.0606,09/26.0/2022,2000,g 16.5,4.0
# From MPC 74246
P/2005 L1 (McNaught),e,7.7311,138.2328,150.0196,3.989006,0.1237106,0.21204019,40.2865,09/26.0/2022,2000,g  9.5,4.0
# From MPC 75706
P/2005 S2 (Skiff),e,3.1356,161.2235,229.4039,8.005714,0.0435115,0.19850127,259.7297,09/26.0/2022,2000,g  7.5,4.0
# From MPC 75706
P/2005 SB216 (LONEOS),e,24.1130,1.1254,83.2502,7.144809,0.0516081,0.46457924,297.6732,09/26.0/2022,2000,g 12.0,2.0
# From MPC 73461
P/2005 T3 (Read),e,6.2237,27.6715,6.6785,7.588225,0.0471513,0.17533349,293.1142,09/26.0/2022,2000,g  9.0,4.0
# From MPC 73461
P/2005 T4 (SWAN),e,160.2662,25.9105,41.8274,9.359311,0.0344222,0.92976527,213.3115,09/26.0/2022,2000,g 15.0,4.0
# From MPC 75706
P/2005 T5 (Broughton),e,21.3782,57.0007,304.6852,7.281191,0.0501650,0.55265909,310.2256,09/26.0/2022,2000,g 11.0,4.0
# From MPC 75707
P/2006 HR30 (Siding Spring),e,31.8576,309.8389,117.3696,7.808992,0.0451660,0.84306488,260.3913,09/26.0/2022,2000,g 11.0,4.0
# From MPC 75707
P/2007 A2 (Christensen),e,26.4855,300.9132,186.6991,6.336877,0.0617862,0.55835973,356.0429,09/26.0/2022,2000,g 13.5,4.0
# From MPC 75707
P/2007 C2 (Catalina),e,8.6079,275.3087,180.1690,6.998597,0.0532338,0.47206310,292.1650,09/26.0/2022,2000,g 10.0,4.0
# From MPC 84315
C/2007 D1 (LINEAR),e,41.5016,171.2336,339.8095,1199,0.0000237,0.99266966,0.0000,06/07.1418/2007,2000,g  3.5,4.0
# From MPC 82314
P/2007 K2 (Gibbs),e,7.6275,188.6343,347.3539,7.275168,0.0502273,0.68307764,281.8354,09/26.0/2022,2000,g 14.0,4.0
# From MPC 60925
P/2007 Q2 (Gilmore),e,10.2027,172.1528,162.8496,5.657207,0.0732489,0.67003825,48.9323,09/26.0/2022,2000,g 16.0,4.0
# From MPC 73462
P/2007 S1 (Zhao),e,5.9612,141.3546,245.2192,3.821403,0.1319380,0.33930668,358.5607,09/26.0/2022,2000,g 13.0,4.0
# From MPC 61994
P/2007 T2 (Kowalski),e,9.7522,3.3774,359.6629,3.045712,0.1854261,0.78567374,282.5668,09/26.0/2022,2000,g 18.5,4.0
# From MPC 75709
P/2008 L2 (Hill),e,25.8682,218.0178,141.2622,6.027632,0.0666015,0.61344884,344.8774,09/26.0/2022,2000,g 12.5,4.0
# From MPC 64114
P/2008 O3 (Boattini),e,32.3292,47.5646,341.1638,8.215715,0.0418539,0.69633723,218.8934,09/26.0/2022,2000,g 13.0,4.0
# From MPC 75710
P/2008 Y3 (McNaught),e,38.7785,262.8542,238.0495,8.047682,0.0431716,0.44581439,217.2790,09/26.0/2022,2000,g  8.5,4.0
# From MPC 75710
P/2009 B1 (Boattini),e,22.2346,297.0755,128.8985,6.737182,0.0563620,0.63557298,282.5708,09/26.0/2022,2000,g 13.0,4.0
# From MPC 66466
C/2009 G1 (STEREO),e,108.5267,120.5507,175.5057,464.4070,0.0000985,0.99754648,0.0000,04/18.2454/2009,2000,g  9.0,4.0
# From MPC 75710
P/2009 O3 (Hill),e,16.2887,183.6850,154.4882,7.766981,0.0455329,0.68779011,221.6546,09/26.0/2022,2000,g 12.5,4.0
# From MPC 68902
P/2009 Q5 (McNaught),e,40.9856,160.2754,209.1016,7.430104,0.0486644,0.60981971,231.6552,09/26.0/2022,2000,g 10.0,4.0
# From MPC112389
P/2009 T2 (La Sagra),e,27.6040,215.8960,216.3262,7.718906,0.0459590,0.76638242,213.8390,09/26.0/2022,2000,g 14.0,4.0
# From MPC105235
P/2009 WX51 (Catalina),e,9.5945,31.5683,118.2594,3.082781,0.1820917,0.73943366,123.6592,09/26.0/2022,2000,g 19.0,2.0
# From MPC 74247
P/2009 Y2 (Kowalski),e,29.9603,262.0414,172.1327,6.549725,0.0587989,0.63673293,270.1319,09/26.0/2022,2000,g 13.0,4.0
# From MPC 75711
P/2010 A3 (Hill),e,14.8160,63.6385,42.2806,6.086272,0.0656413,0.73372390,301.0630,09/26.0/2022,2000,g 14.0,4.0
# From MPC 75008
P/2010 C1 (Scotti),e,9.1259,141.8736,3.3869,7.105012,0.0520423,0.26034821,245.2826,09/26.0/2022,2000,g  9.5,4.0
# From MPC 75008
P/2010 D2 (WISE),e,57.0974,319.8837,119.9355,6.721017,0.0565655,0.45141033,261.1309,09/26.0/2022,2000,g 16.0,4.0
# From MPC 75009
P/2010 E2 (Jarnac),e,15.3848,177.8199,8.3056,8.640249,0.0388074,0.71943033,177.2984,09/26.0/2022,2000,g 14.0,4.0
# From MPC 72851
P/2010 H2 (Vales),e,14.2787,64.1867,128.0160,3.832188,0.1313814,0.19658479,242.2725,09/26.0/2022,2000,g  6.0,4.0
# From MPC 70361
P/2010 H3 (SOHO),e,23.0786,77.0999,26.1417,3.036305,0.1862885,0.98537469,0.0000,02/07.8687/2021,2000,g 20.0,2.0
# From MPC 73463
P/2010 H4 (Scotti),e,2.3178,44.7263,179.3296,6.599775,0.0581314,0.26619113,261.2452,09/26.0/2022,2000,g 10.5,4.0
# From MPC 74637
P/2010 H5 (Scotti),e,14.0572,24.7935,174.7602,7.170566,0.0513303,0.15251592,234.8209,09/26.0/2022,2000,g 13.0,2.0
# From MPC 98558
P/2010 J3 (McMillan),e,13.2663,106.4648,157.5806,8.979956,0.0366263,0.72563038,161.6855,09/26.0/2022,2000,g 11.0,4.0
# From MPC 84315
P/2010 JC81 (WISE),e,38.8199,30.8678,12.4268,8.106014,0.0427064,0.77786116,178.1863,09/26.0/2022,2000,g  9.0,4.0
# From MPC 74248
P/2010 T2 (PANSTARRS),e,7.8873,58.5576,352.6765,5.568774,0.0750006,0.32340247,319.7215,09/26.0/2022,2000,g 11.5,4.0
# From MPC 98558
P/2010 TO20 (LINEAR-Grauer),e,2.4787,43.2843,267.4674,5.833023,0.0699622,0.05564897,355.5920,09/26.0/2022,2000,g  9.0,4.0
# From MPC 82316
P/2010 U1 (Boattini),e,8.2200,280.6809,86.2414,6.502056,0.0594467,0.24912574,274.3485,09/26.0/2022,2000,g  9.5,4.0
# From MPEC 2022-OB6
C/2010 U3 (Boattini),e,55.5538,42.9953,88.0399,2523,0.0000078,0.99665473,0.0000,02/25.2663/2019,2000,g  1.0,4.0
# From MPC 79021
P/2010 UH55 (Spacewatch),e,8.0383,232.9062,225.1441,6.654614,0.0574143,0.56369829,240.6901,09/26.0/2022,2000,g 11.0,4.0
# From MPC 75009
P/2010 WK (LINEAR),e,11.4016,11.3338,40.9791,5.762310,0.0712540,0.69048013,312.6578,09/26.0/2022,2000,g 14.5,2.0
# From MPC 84021
P/2011 C2 (Gibbs),e,10.8873,12.1203,160.5254,7.412584,0.0488371,0.26913300,192.1745,09/26.0/2022,2000,g  9.0,4.0
# From MPC 79866
P/2011 FR143 (Lemmon),e,15.9756,190.9491,349.9420,6.863374,0.0548148,0.45061853,232.2978,09/26.0/2022,2000,g 14.0,2.0
# From MPC 82317
P/2011 JB15 (Spacewatch-Boattini),e,19.1466,153.5867,111.0545,7.365752,0.0493036,0.31605867,192.5176,09/26.0/2022,2000,g  9.0,4.0
# From MPC 87913
P/2011 N1 (ASH),e,35.7643,77.5783,330.3830,6.244873,0.0631566,0.54497640,238.6306,09/26.0/2022,2000,g 11.5,4.0
# From MPC 75714
P/2011 NO1 (Elenin),e,15.2445,295.8269,263.7098,5.531490,0.0757602,0.77459027,323.8594,09/26.0/2022,2000,g 15.0,4.0
# From MPEC 2022-ED3
P/2011 P1 (McNaught),e,5.6610,4.2314,349.1339,7.459469,0.0483774,0.32765750,214.7482,09/26.0/2022,2000,g  9.0,4.0
# From MPEC 2022-HC2
P/2011 S1 (Gibbs),e,2.6873,218.8304,192.4868,8.583108,0.0391956,0.20146086,116.1909,09/26.0/2022,2000,g  8.0,4.0
# From MPC 79022
P/2011 UA134 (Spacewatch-PANSTARRS),e,10.4404,40.3991,32.4015,5.609587,0.0741836,0.62974994,295.0845,09/26.0/2022,2000,g 17.5,4.0
# From MPC 77406
P/2011 V1 (Boattini),e,7.3749,46.7851,269.3771,3.857077,0.1301118,0.55013963,189.2683,09/26.0/2022,2000,g 15.5,4.0
# From MPC 82718
P/2011 W1 (PANSTARRS),e,3.7186,161.7847,282.7757,4.665783,0.0977952,0.28799226,22.5066,09/26.0/2022,2000,g 11.5,4.0
# From MPC 79342
P/2011 Y2 (Boattini),e,6.3771,309.3321,131.9442,6.238196,0.0632580,0.71022848,244.0342,09/26.0/2022,2000,g 15.0,4.0
# From MPEC 2022-K19
P/2012 B1 (PANSTARRS),e,7.6101,36.2165,162.3957,6.531729,0.0590421,0.40895827,198.6269,09/26.0/2022,2000,g  9.0,4.0
# From MPC 78590
P/2012 C3 (PANSTARRS),e,9.0920,135.3677,344.9542,9.748681,0.0323806,0.63011148,359.9758,10/06.0/2011,2000,g 13.0,4.0
# From MPC 84931
